{
  "type": "FeatureCollection",
  "features": [
    {
      "type": "Feature",
      "properties": {
        "norad_id": 34003,
        "name": "COSMOS 2251 DEB",
        "group": "cosmos-2251-debris",
        "lat": -22.803797354149008,
        "lon": -77.83562005982682,
        "alt_km": 865.7711930882842,
        "timestamp": "2025-12-10T09:57:45.091186+00:00",
        "meta_object_name": "COSMOS 2251 DEB",
        "meta_object_id": "1993-036GN",
        "meta_epoch": "2025-12-09T20:11:47.988096",
        "meta_mean_motion": 13.84125477,
        "meta_eccentricity": 0.0274138,
        "meta_inclination": 74.0785,
        "meta_ra_of_asc_node": 290.022,
        "meta_arg_of_pericenter": 42.7188,
        "meta_mean_anomaly": 319.4894,
        "meta_ephemeris_type": 0,
        "meta_classification_type": "U",
        "meta_norad_cat_id": 34003,
        "meta_element_set_no": 999,
        "meta_rev_at_epoch": 84385,
        "meta_bstar": 0.0034157,
        "meta_mean_motion_dot": 5.07e-05,
        "meta_mean_motion_ddot": 0,
        "tle_line1": "1 34003U 93036GN  25343.84152764  .00005070  00000+0  34157-2 0  9998",
        "tle_line2": "2 34003  74.0785 290.0220 0274138  42.7188 319.4894 13.84125477843851"
      },
      "geometry": {
        "type": "Point",
        "coordinates": [
          -77.83562005982682,
          -22.803797354149008
        ]
      }
    },
    {
      "type": "Feature",
      "properties": {
        "norad_id": 34004,
        "name": "COSMOS 2251 DEB",
        "group": "cosmos-2251-debris",
        "lat": 23.38311452619198,
        "lon": 130.35944348247517,
        "alt_km": 751.7406285364159,
        "timestamp": "2025-12-10T09:57:45.091202+00:00",
        "meta_object_name": "COSMOS 2251 DEB",
        "meta_object_id": "1993-036GP",
        "meta_epoch": "2025-12-09T08:23:26.791296",
        "meta_mean_motion": 14.48954791,
        "meta_eccentricity": 0.00333157,
        "meta_inclination": 74.0363,
        "meta_ra_of_asc_node": 319.4658,
        "meta_arg_of_pericenter": 332.1121,
        "meta_mean_anomaly": 27.8252,
        "meta_ephemeris_type": 0,
        "meta_classification_type": "U",
        "meta_norad_cat_id": 34004,
        "meta_element_set_no": 999,
        "meta_rev_at_epoch": 87981,
        "meta_bstar": 0.0021272229,
        "meta_mean_motion_dot": 8.098e-05,
        "meta_mean_motion_ddot": 0,
        "tle_line1": "1 34004U 93036GP  25343.34961564  .00008098  00000+0  21272-2 0  9997",
        "tle_line2": "2 34004  74.0363 319.4658 0033315 332.1121  27.8252 14.48954791879811"
      },
      "geometry": {
        "type": "Point",
        "coordinates": [
          130.35944348247517,
          23.38311452619198
        ]
      }
    },
    {
      "type": "Feature",
      "properties": {
        "norad_id": 34005,
        "name": "COSMOS 2251 DEB",
        "group": "cosmos-2251-debris",
        "lat": 36.26563712881467,
        "lon": 25.826465681265564,
        "alt_km": 768.9510539176199,
        "timestamp": "2025-12-10T09:57:45.091212+00:00",
        "meta_object_name": "COSMOS 2251 DEB",
        "meta_object_id": "1993-036GQ",
        "meta_epoch": "2025-12-10T03:21:51.378336",
        "meta_mean_motion": 14.40301335,
        "meta_eccentricity": 0.0020752,
        "meta_inclination": 74.0447,
        "meta_ra_of_asc_node": 218.45,
        "meta_arg_of_pericenter": 337.0432,
        "meta_mean_anomaly": 179.8956,
        "meta_ephemeris_type": 0,
        "meta_classification_type": "U",
        "meta_norad_cat_id": 34005,
        "meta_element_set_no": 999,
        "meta_rev_at_epoch": 88341,
        "meta_bstar": 0.00015842,
        "meta_mean_motion_dot": 4.77e-06,
        "meta_mean_motion_ddot": 0,
        "tle_line1": "1 34005U 93036GQ  25344.14017799  .00000477  00000+0  15842-3 0  9999",
        "tle_line2": "2 34005  74.0447 218.4500 0020752 337.0432 179.8956 14.40301335883411"
      },
      "geometry": {
        "type": "Point",
        "coordinates": [
          25.826465681265564,
          36.26563712881467
        ]
      }
    },
    {
      "type": "Feature",
      "properties": {
        "norad_id": 34006,
        "name": "COSMOS 2251 DEB",
        "group": "cosmos-2251-debris",
        "lat": -44.885491822044486,
        "lon": 131.42031352577462,
        "alt_km": 597.0249860624017,
        "timestamp": "2025-12-10T09:57:45.091222+00:00",
        "meta_object_name": "COSMOS 2251 DEB",
        "meta_object_id": "1993-036GR",
        "meta_epoch": "2025-12-09T22:01:46.108992",
        "meta_mean_motion": 14.944179,
        "meta_eccentricity": 0.0011548,
        "meta_inclination": 74.0548,
        "meta_ra_of_asc_node": 148.9653,
        "meta_arg_of_pericenter": 99.3317,
        "meta_mean_anomaly": 59.7558,
        "meta_ephemeris_type": 0,
        "meta_classification_type": "U",
        "meta_norad_cat_id": 34006,
        "meta_element_set_no": 999,
        "meta_rev_at_epoch": 88626,
        "meta_bstar": 0.0047542,
        "meta_mean_motion_dot": 0.00051646,
        "meta_mean_motion_ddot": 0,
        "tle_line1": "1 34006U 93036GR  25343.91789478  .00051646  00000+0  47542-2 0  9999",
        "tle_line2": "2 34006  74.0548 148.9653 0011548  99.3317  59.7558 14.94417900886268"
      },
      "geometry": {
        "type": "Point",
        "coordinates": [
          131.42031352577462,
          -44.885491822044486
        ]
      }
    },
    {
      "type": "Feature",
      "properties": {
        "norad_id": 34007,
        "name": "COSMOS 2251 DEB",
        "group": "cosmos-2251-debris",
        "lat": 37.95071906370554,
        "lon": 158.4569388820388,
        "alt_km": 644.1860081666991,
        "timestamp": "2025-12-10T09:57:45.091232+00:00",
        "meta_object_name": "COSMOS 2251 DEB",
        "meta_object_id": "1993-036GS",
        "meta_epoch": "2025-12-10T02:46:14.191392",
        "meta_mean_motion": 14.6475506,
        "meta_eccentricity": 0.0044396,
        "meta_inclination": 74.0195,
        "meta_ra_of_asc_node": 351.9478,
        "meta_arg_of_pericenter": 127.7812,
        "meta_mean_anomaly": 232.739,
        "meta_ephemeris_type": 0,
        "meta_classification_type": "U",
        "meta_norad_cat_id": 34007,
        "meta_element_set_no": 999,
        "meta_rev_at_epoch": 89041,
        "meta_bstar": 0.00090958,
        "meta_mean_motion_dot": 4.89e-05,
        "meta_mean_motion_ddot": 0,
        "tle_line1": "1 34007U 93036GS  25344.11544203  .00004890  00000+0  90958-3 0  9997",
        "tle_line2": "2 34007  74.0195 351.9478 0044396 127.7812 232.7390 14.64755060890419"
      },
      "geometry": {
        "type": "Point",
        "coordinates": [
          158.4569388820388,
          37.95071906370554
        ]
      }
    },
    {
      "type": "Feature",
      "properties": {
        "norad_id": 34008,
        "name": "COSMOS 2251 DEB",
        "group": "cosmos-2251-debris",
        "lat": 65.54061459075696,
        "lon": 115.76287582101195,
        "alt_km": 787.4333848921478,
        "timestamp": "2025-12-10T09:57:45.091242+00:00",
        "meta_object_name": "COSMOS 2251 DEB",
        "meta_object_id": "1993-036GT",
        "meta_epoch": "2025-12-10T03:04:55.673760",
        "meta_mean_motion": 14.33143253,
        "meta_eccentricity": 0.002422,
        "meta_inclination": 74.0341,
        "meta_ra_of_asc_node": 335.2909,
        "meta_arg_of_pericenter": 330.9928,
        "meta_mean_anomaly": 99.0626,
        "meta_ephemeris_type": 0,
        "meta_classification_type": "U",
        "meta_norad_cat_id": 34008,
        "meta_element_set_no": 999,
        "meta_rev_at_epoch": 87927,
        "meta_bstar": 0.00018993,
        "meta_mean_motion_dot": 4.97e-06,
        "meta_mean_motion_ddot": 0,
        "tle_line1": "1 34008U 93036GT  25344.12842215  .00000497  00000+0  18993-3 0  9991",
        "tle_line2": "2 34008  74.0341 335.2909 0024220 330.9928  99.0626 14.33143253879275"
      },
      "geometry": {
        "type": "Point",
        "coordinates": [
          115.76287582101195,
          65.54061459075696
        ]
      }
    },
    {
      "type": "Feature",
      "properties": {
        "norad_id": 34009,
        "name": "COSMOS 2251 DEB",
        "group": "cosmos-2251-debris",
        "lat": 34.16156730878476,
        "lon": 149.9849036243988,
        "alt_km": 779.232656126268,
        "timestamp": "2025-12-10T09:57:45.091252+00:00",
        "meta_object_name": "COSMOS 2251 DEB",
        "meta_object_id": "1993-036GU",
        "meta_epoch": "2025-12-10T01:10:43.114368",
        "meta_mean_motion": 14.33218678,
        "meta_eccentricity": 0.0026419,
        "meta_inclination": 74.037,
        "meta_ra_of_asc_node": 341.8539,
        "meta_arg_of_pericenter": 52.348,
        "meta_mean_anomaly": 3.8972,
        "meta_ephemeris_type": 0,
        "meta_classification_type": "U",
        "meta_norad_cat_id": 34009,
        "meta_element_set_no": 999,
        "meta_rev_at_epoch": 87907,
        "meta_bstar": 0.00020783,
        "meta_mean_motion_dot": 5.48e-06,
        "meta_mean_motion_ddot": 0,
        "tle_line1": "1 34009U 93036GU  25344.04911012  .00000548  00000+0  20783-3 0  9992",
        "tle_line2": "2 34009  74.0370 341.8539 0026419  52.3480   3.8972 14.33218678879079"
      },
      "geometry": {
        "type": "Point",
        "coordinates": [
          149.9849036243988,
          34.16156730878476
        ]
      }
    }
  ]
}